NORAD_CAT_ID,OBJECT_NAME,OBJECT_TYPE,EPOCH,MEAN_MOTION,ECCENTRICITY,INCLINATION,RA_OF_ASC_NODE,ARG_OF_PERICENTER,MEAN_ANOMALY,BSTAR,MEAN_MOTION_DOT,MEAN_MOTION_DDOT,TLE_LINE0,TLE_LINE1,TLE_LINE2,SEMIMAJOR_AXIS,PERIOD,APOGEE,PERIGEE,DECAYED
49135.0,STARLINK-3073,PAYLOAD,2022-07-29 15:21:09,14.96713974,0.0003293,69.9993,339.7927,260.0046,100.0741,-5.6494e-05,-7.38e-06,0.0,0 STARLINK-3073,1 49135U 21082F   22210.63969738 -.00000738  00000-0 -56494-4 0  9995,2 49135  69.9993 339.7927 0003293 260.0046 100.0741 14.96713974 49405,6955.195,96.211,579.35,574.769,0.0
49135.0,STARLINK-3073,PAYLOAD,2022-07-30 02:34:49,14.96716661,0.0003252,69.9993,338.6159,260.0328,100.0463,-4.7684e-05,-6.37e-06,0.0,0 STARLINK-3073,1 49135U 21082F   22211.10751932 -.00000637  00000-0 -47684-4 0  9992,2 49135  69.9993 338.6159 0003252 260.0328 100.0463 14.96716661 49472,6955.186,96.211,579.313,574.79,0.0
49135.0,STARLINK-3073,PAYLOAD,2022-07-30 10:36:01,14.96717773,0.0003221,69.9993,337.7753,259.8683,100.2112,-6.7229e-05,-8.61e-06,0.0,0 STARLINK-3073,1 49135U 21082F   22211.44167874 -.00000861  00000-0 -67229-4 0  9991,2 49135  69.9993 337.7753 0003221 259.8683 100.2112 14.96717773 49522,6955.183000000001,96.211,579.288,574.808,0.0
49135.0,STARLINK-3073,PAYLOAD,2022-07-30 15:24:43,14.96718698,0.0003221999999999,69.9993,337.2712,259.7619,100.3176,-2.4207e-05,-3.69e-06,0.0,0 STARLINK-3073,1 49135U 21082F   22211.64217276 -.00000369  00000-0 -24207-4 0  9997,2 49135  69.9993 337.2712 0003222 259.7619 100.3176 14.96718698 49552,6955.18,96.21,579.286,574.804,0.0
49135.0,STARLINK-3073,PAYLOAD,2022-07-31 09:03:20,14.96716559,0.0003249,69.9993,335.4223,259.8107,100.2685,8.3883e-05,8.69e-06,0.0,0 STARLINK-3073,1 49135U 21082F   22212.37732311  .00000869  00000-0  83883-4 0  9998,2 49135  69.9993 335.4223 0003249 259.8107 100.2685 14.96716559 49661,6955.187,96.211,579.312,574.7919999999998,0.0
49135.0,STARLINK-3073,PAYLOAD,2022-07-31 15:28:17,14.96716699,0.0003245,69.9993,334.7499,259.8174,100.2618,7.927100000000001e-05,8.16e-06,0.0,0 STARLINK-3073,1 49135U 21082F   22212.64465085  .00000816  00000-0  79271-4 0  9997,2 49135  69.9993 334.7499 0003245 259.8174 100.2618 14.96716699 49704,6955.186,96.211,579.308,574.794,0.0
49135.0,STARLINK-3073,PAYLOAD,2022-08-01 13:55:38,14.96709994,0.0003202,69.9994,332.3967,259.6578,100.4219,-4.8657e-05,-6.48e-06,0.0,0 STARLINK-3073,1 49135U 21082F   22213.58030590 -.00000648  00000-0 -48657-4 0  9999,2 49135  69.9994 332.3967 0003202 259.6578 100.4219 14.96709994 49842,6955.206999999999,96.211,579.299,574.845,0.0
49135.0,STARLINK-3073,PAYLOAD,2022-08-02 13:59:12,14.96713146,0.0003156,69.9996,329.8754,257.8429,102.2376,-5.4194e-05,-7.12e-06,0.0,0 STARLINK-3073,1 49135U 21082F   22214.58278603 -.00000712  00000-0 -54194-4 0  9994,2 49135  69.9996 329.8754 0003156 257.8429 102.2376 14.96713146 49996,6955.196999999999,96.211,579.257,574.867,0.0
49135.0,STARLINK-3073,PAYLOAD,2022-08-03 12:26:32,14.96711188,0.0003214,69.9994,327.5219,258.1436,101.9362,6.6399e-05,6.68e-06,0.0,0 STARLINK-3073,1 49135U 21082F   22215.51843311  .00000668  00000-0  66399-4 0  9990,2 49135  69.9994 327.5219 0003214 258.1436 101.9362 14.96711188 50135,6955.203,96.211,579.304,574.8330000000002,0.0
49135.0,STARLINK-3073,PAYLOAD,2022-08-03 18:51:29,14.96712788,0.000321,69.9994,326.8497,258.392,101.6878,0.00010088,1.063e-05,0.0,0 STARLINK-3073,1 49135U 21082F   22215.78575979  .00001063  00000-0  10088-3 0  9994,2 49135  69.9994 326.8497 0003210 258.3920 101.6878 14.96712788 50171,6955.198,96.211,579.2959999999998,574.831,0.0
49135.0,STARLINK-3073,PAYLOAD,2022-08-04 12:30:06,14.96717617,0.0003242,69.9993,325.0008,258.6426,101.4368,0.00010676,1.131e-05,0.0,0 STARLINK-3073,1 49135U 21082F   22216.52090831  .00001131  00000-0  10676-3 0  9995,2 49135  69.9993 325.0008 0003242 258.6426 101.4368 14.96717617 50288,6955.184,96.211,579.303,574.794,0.0
49135.0,STARLINK-3073,PAYLOAD,2022-08-04 18:55:03,14.96719969,0.0003246,69.9992,324.3285,258.8705,101.2088,0.00010163,1.072e-05,0.0,0 STARLINK-3073,1 49135U 21082F   22216.78823425  .00001072  00000-0  10163-3 0  9991,2 49135  69.9992 324.3285 0003246 258.8705 101.2088 14.96719969 50326,6955.176,96.21,579.299,574.784,0.0
49135.0,STARLINK-3073,PAYLOAD,2022-08-05 10:57:26,14.96713749,0.0003183,69.9992,322.6474,258.4803,101.5998,-4.2038e-05,-5.73e-06,0.0,0 STARLINK-3073,1 49135U 21082F   22217.45656094 -.00000573  00000-0 -42038-4 0  9996,2 49135  69.9992 322.6474 0003183 258.4803 101.5998 14.96713749 50426,6955.196,96.211,579.274,574.847,0.0
49135.0,STARLINK-3073,PAYLOAD,2022-08-06 11:01:01,14.96715901,0.0003157,69.9991,320.1262,258.37,101.7104,-5.3918e-05,-7.09e-06,0.0,0 STARLINK-3073,1 49135U 21082F   22218.45904054 -.00000709  00000-0 -53918-4 0  9999,2 49135  69.9991 320.1262 0003157 258.3700 101.7104 14.96715901 50578,6955.189,96.211,579.25,574.8580000000002,0.0
49135.0,STARLINK-3073,PAYLOAD,2022-08-07 12:40:49,14.96715042,0.0003177,69.9991,317.4371,258.2486,101.8316,0.00010668,1.13e-05,0.0,0 STARLINK-3073,1 49135U 21082F   22219.52834812  .00001130  00000-0  10668-3 0  9993,2 49135  69.9991 317.4371 0003177 258.2486 101.8316 14.96715042 50730,6955.191999999999,96.211,579.266,574.847,0.0
49135.0,STARLINK-3073,PAYLOAD,2022-08-07 15:53:17,14.96716259,0.0003165,69.999,317.1008,257.6954,102.3849,0.00011524,1.228e-05,0.0,0 STARLINK-3073,1 49135U 21082F   22219.66201102  .00001228  00000-0  11524-3 0  9998,2 49135  69.9990 317.1008 0003165 257.6954 102.3849 14.96716259 50753,6955.188,96.211,579.254,574.851,0.0
49135.0,STARLINK-3073,PAYLOAD,2022-08-08 11:08:08,14.96727706,0.0003198,69.999,315.0837,257.7021,102.3779,0.00017487,1.911e-05,0.0,0 STARLINK-3073,1 49135U 21082F   22220.46398266  .00001911  00000-0  17487-3 0  9999,2 49135  69.9990 315.0837 0003198 257.7021 102.3779 14.96727706 50876,6955.151999999999,96.21,579.242,574.793,0.0
49135.0,STARLINK-3073,PAYLOAD,2022-08-08 15:56:51,14.96723967,0.000331,69.9986,314.5793,259.7242,100.3543,0.00010076,1.062e-05,0.0,0 STARLINK-3073,1 49135U 21082F   22220.66448168  .00001062  00000-0  10076-3 0  9992,2 49135  69.9986 314.5793 0003310 259.7242 100.3543 14.96723967 50905,6955.1640000000025,96.21,579.331,574.727,0.0
49135.0,STARLINK-3073,PAYLOAD,2022-08-08 23:58:02,14.96730701,0.0003143,69.9987,313.7391,255.7669,104.314,-7.8248e-05,-9.87e-06,0.0,0 STARLINK-3073,1 49135U 21082F   22220.99864204 -.00000987  00000-0 -78248-4 0  9994,2 49135  69.9987 313.7391 0003143 255.7669 104.3140 14.96730701 50950,6955.143,96.21,579.194,574.822,0.0
49135.0,STARLINK-3073,PAYLOAD,2022-08-09 06:22:59,14.96724084,0.0003239,69.9986,313.0664,257.3845,102.6951,1.4225e-05,7.1e-07,0.0,0 STARLINK-3073,1 49135U 21082F   22221.26596850  .00000071  00000-0  14225-4 0  9991,2 49135  69.9986 313.0664 0003239 257.3845 102.6951 14.96724084 50997,6955.163000000001,96.21,579.281,574.776,0.0
49135.0,STARLINK-3073,PAYLOAD,2022-08-09 12:47:57,14.96715843,0.0003408,69.9982,312.3945,259.9592,100.1182,-0.00010035,-1.24e-05,0.0,0 STARLINK-3073,1 49135U 21082F   22221.53330345 -.00001240  00000-0 -10035-3 0  9991,2 49135  69.9982 312.3945 0003408 259.9592 100.1182 14.96715843 51030,6955.189,96.211,579.424,574.684,0.0
49135.0,STARLINK-3073,PAYLOAD,2022-08-10 08:02:49,14.96712682,0.0003118,69.9986,310.3773,256.2069,103.8742,-0.00022318,-2.645e-05,0.0,0 STARLINK-3073,1 49135U 21082F   22222.33529276 -.00002645  00000-0 -22318-3 0  9990,2 49135  69.9986 310.3773 0003118 256.2069 103.8742 14.96712682 51151,6955.199000000001,96.211,579.232,574.895,0.0
49135.0,STARLINK-3073,PAYLOAD,2022-08-10 17:40:15,14.96709677,0.0003153,69.9992,309.3693,255.6943,104.3865,-0.00022,-2.608e-05,0.0,0 STARLINK-3073,1 49135U 21082F   22222.73628769 -.00002608  00000-0 -22000-3 0  9998,2 49135  69.9992 309.3693 0003153 255.6943 104.3865 14.96709677 51219,6955.208000000001,96.211,579.266,574.88,0.0
49135.0,STARLINK-3073,PAYLOAD,2022-08-11 04:53:55,14.96707246,0.0003268,69.999,308.1918,256.9137,103.1656,-8.5945e-05,-1.075e-05,0.0,0 STARLINK-3073,1 49135U 21082F   22223.20411187 -.00001075  00000-0 -85945-4 0  9990,2 49135  69.9990 308.1918 0003268 256.9137 103.1656 14.96707246 51282,6955.215999999999,96.211,579.354,574.808,0.0
49135.0,STARLINK-3073,PAYLOAD,2022-08-11 12:55:06,14.967121300000002,0.000308,69.9989,307.3520000000001,254.1231,105.9588,-0.00011436,-1.4e-05,0.0,0 STARLINK-3073,1 49135U 21082F   22223.53827154 -.00001400  00000-0 -11436-3 0  9996,2 49135  69.9989 307.3520 0003080 254.1231 105.9588 14.96712130 51335,6955.201,96.211,579.2080000000002,574.923,0.0
49135.0,STARLINK-3073,PAYLOAD,2022-08-12 04:57:29,14.96705997,0.0003215,69.9985,305.6702,257.2059,102.874,0.00017415,1.902e-05,0.0,0 STARLINK-3073,1 49135U 21082F   22224.20659168  .00001902  00000-0  17415-3 0  9997,2 49135  69.9985 305.6702 0003215 257.2059 102.8740 14.96705997 51436,6955.22,96.211,579.321,574.8480000000002,0.0
49135.0,STARLINK-3073,PAYLOAD,2022-08-12 12:58:40,14.96711324,0.0003216,69.9985,304.8295,257.4896,102.5902,0.00016259,1.77e-05,0.0,0 STARLINK-3073,1 49135U 21082F   22224.54075036  .00001770  00000-0  16259-3 0  9998,2 49135  69.9985 304.8295 0003216 257.4896 102.5902 14.96711324 51489,6955.203,96.211,579.305,574.831,0.0
49135.0,STARLINK-3073,PAYLOAD,2022-08-12 17:47:23,14.96713689,0.0003216,69.9984,304.3254,257.547,102.5328,0.00018594,2.037e-05,0.0,0 STARLINK-3073,1 49135U 21082F   22224.74124478  .00002037  00000-0  18594-3 0  9996,2 49135  69.9984 304.3254 0003216 257.5470 102.5328 14.96713689 51519,6955.196,96.211,579.297,574.8240000000002,0.0
49135.0,STARLINK-3073,PAYLOAD,2022-08-13 13:02:14,14.96719434,0.000324,69.9984,302.3083,258.1197,101.9598,0.00012335,1.321e-05,0.0,0 STARLINK-3073,1 49135U 21082F   22225.54322552  .00001321  00000-0  12335-3 0  9990,2 49135  69.9984 302.3083 0003240 258.1197 101.9598 14.96719434 51636,6955.178000000001,96.21,579.2959999999998,574.789,0.0
